*******************************************************************************
Ephemeris / WWW_USER Thu Jun 11 21:55:44 2020 Pasadena, USA      / Horizons
*******************************************************************************
Target body name: 1P/Halley                       {source: JPL#J863/77}
Center body name: Sun (10)                        {source: DE406}
Center-site name: BODY CENTER
*******************************************************************************
Start time      : A.D. 2000-Jul-09 00:00:00.0000 TDB
Stop  time      : A.D. 2024-Jul-09 00:00:00.0000 TDB
Step-size       : 1440 minutes
*******************************************************************************
Center geodetic : 0.00000000,0.00000000,0.0000000 {E-lon(deg),Lat(deg),Alt(km)}
Center cylindric: 0.00000000,0.00000000,0.0000000 {E-lon(deg),Dxy(km),Dz(km)}
Center radii    : 696000.0 x 696000.0 x 696000.0 k{Equator, meridian, pole}    
Keplerian GM    : 2.9591220828559093E-04 au^3/d^2
Small perturbers: Yes                             {source: SB406-CPV-2}
Output units    : AU-D, deg, Julian Day Number (Tp)
Output type     : GEOMETRIC osculating elements
Output format   : 10
Reference frame : Ecliptic of J2000.0
*******************************************************************************
Initial IAU76/J2000 heliocentric ecliptic osculating elements (au, days, deg.):
  EPOCH=  2449400.5 ! 1994-Feb-17.0000000 (TDB)    RMSW= n.a.                  
   EC= .9671429084623044   QR= .5859781115169086   TP= 2446467.3953170511      
   OM= 58.42008097656843   W= 111.3324851045177    IN= 162.2626905791606       
  Equivalent ICRF heliocentric equatorial cartesian coordinates (au, au/d):
   X=-1.394097492221407E+01  Y= 1.280566418073994E+01  Z=-6.838705058662126E-01
  VX=-2.114527120886761E-03 VY= 3.184092376402889E-03 VZ= 2.042731155152628E-04
Comet physical (GM= km^3/s^2; RAD= km):                                        
   GM= n.a.                RAD= 5.5                                            
   M1=  5.5      M2=  13.6     k1=  8.     k2=  5.      PHCOF=  .030           
Comet non-gravitational force model (AMRAT=m^2/kg;A1-A3=au/d^2;DT=days;R0=au): 
   AMRAT=  0.                                      DT=  0.                     
   A1= 2.69646383822E-10   A2= 1.554613374174E-10  A3= 0.                      
 Standard model:                                                               
   ALN=  .1112620426   NK=  4.6142   NM=  2.15     NN=  5.093    R0=  2.808    
*******************************************************************************
            JDTDB,            Calendar Date (TDB),                     EC,                     QR,                     IN,                     OM,                      W,                     Tp,                      N,                     MA,                     TA,                      A,                     AD,                     PR,
**************************************************************************************************************************************************************************************************************************************************************************************************************************************************
$$SOE
2455097.500000000, A.D. 2009-Sep-23 00:00:00.0000,  9.665677403376655E-01,  5.976443253079687E-01,  1.622514573357650E+02,  5.874815705841117E+01,  1.117168656100833E+02,  2.446465394694351E+06,  1.304032665584773E-02,  1.125654729133411E+02,  1.752381591226901E+02,  1.787627672625707E+01,  3.515490912720617E+01,  2.760667040795054E+04,
2455098.500000000, A.D. 2009-Sep-24 00:00:00.0000,  9.665681730694301E-01,  5.976372563340649E-01,  1.622513643968852E+02,  5.874915700964031E+01,  1.117178211359672E+02,  2.446465414315070E+06,  1.304030483630725E-02,  1.125780690094481E+02,  1.752392016598590E+02,  1.787629666710149E+01,  3.515495607786891E+01,  2.760671660049511E+04,
2455099.500000000, A.D. 2009-Sep-25 00:00:00.0000,  9.665686076835065E-01,  5.976301480399009E-01,  1.622512719829303E+02,  5.875015118394925E+01,  1.117187708097543E+02,  2.446465433853742E+06,  1.304028320188931E-02,  1.125906677310440E+02,  1.752402444573129E+02,  1.787631643881760E+01,  3.515500272959531E+01,  2.760676240128299E+04,
2455100.500000000, A.D. 2009-Sep-26 00:00:00.0000,  9.665690438341351E-01,  5.976230064211878E-01,  1.622511801478965E+02,  5.875113900241915E+01,  1.117197140927907E+02,  2.446465453301677E+06,  1.304026175865753E-02,  1.126032692443555E+02,  1.752412875023479E+02,  1.787633603586245E+01,  3.515504906530372E+01,  2.760680779747334E+04,
2455101.500000000, A.D. 2009-Sep-27 00:00:00.0000,  9.665694810831275E-01,  5.976158391669469E-01,  1.622510889474858E+02,  5.875211986804152E+01,  1.117206504365481E+02,  2.446465472649717E+06,  1.304024051133496E-02,  1.126158737101521E+02,  1.752423307749128E+02,  1.787635545391815E+01,  3.515509506866935E+01,  2.760685277906319E+04,
2455102.500000000, A.D. 2009-Sep-28 00:00:00.0000,  9.665699188992309E-01,  5.976086556847980E-01,  1.622509984372633E+02,  5.875309318553655E+01,  1.117215793021459E+02,  2.446465491888512E+06,  1.304021946284680E-02,  1.126284812761877E+02,  1.752433742469632E+02,  1.787637469030989E+01,  3.515514072493499E+01,  2.760689733985572E+04,
2455103.500000000, A.D. 2009-Sep-29 00:00:00.0000,  9.665703566611693E-01,  5.976014670611675E-01,  1.622509086704672E+02,  5.875405838490339E+01,  1.117225001832326E+02,  2.446465511008861E+06,  1.304019861384429E-02,  1.126410920686505E+02,  1.752444178820116E+02,  1.787639374444102E+01,  3.515518602182087E+01,  2.760694147846809E+04,
2455104.500000000, A.D. 2009-Sep-30 00:00:00.0000,  9.665707936647939E-01,  5.975942859479034E-01,  1.622508196954954E+02,  5.875501494841599E+01,  1.117234126318949E+02,  2.446465530002107E+06,  1.304017796223288E-02,  1.126537061829167E+02,  1.752454616349297E+02,  1.787641261822432E+01,  3.515523095050074E+01,  2.760698519933059E+04,
2455105.500000000, A.D. 2009-Oct-01 00:00:00.0000,  9.665712291345927E-01,  5.975871263702641E-01,  1.622507315531465E+02,  5.875596244024974E+01,  1.117243162867837E+02,  2.446465548860580E+06,  1.304015750272154E-02,  1.126663236738550E+02,  1.752465054520406E+02,  1.787643131649392E+01,  3.515527550661759E+01,  2.760702851364076E+04,
2455106.500000000, A.D. 2009-Oct-02 00:00:00.0000,  9.665716622397225E-01,  5.975800034526206E-01,  1.622506442737067E+02,  5.875690053774527E+01,  1.117252109024610E+02,  2.446465567578076E+06,  1.304013722642135E-02,  1.126789445461161E+02,  1.752475492715479E+02,  1.787644984737221E+01,  3.515531969129182E+01,  2.760707144021336E+04,
2455107.500000000, A.D. 2009-Oct-03 00:00:00.0000,  9.665720921145280E-01,  5.975729330614227E-01,  1.622505578740137E+02,  5.875782906289162E+01,  1.117260963785800E+02,  2.446465586150349E+06,  1.304011712052420E-02,  1.126915687449348E+02,  1.752485930243406E+02,  1.787646822256350E+01,  3.515536351206558E+01,  2.760711400616073E+04,
2455108.500000000, A.D. 2009-Oct-04 00:00:00.0000,  9.665725178833229E-01,  5.975659313684586E-01,  1.622504723546694E+02,  5.875874801219381E+01,  1.117269727871148E+02,  2.446465604575583E+06,  1.304009716809875E-02,  1.127041961481097E+02,  1.752496366352095E+02,  1.787648645754053E+01,  3.515540698371261E+01,  2.760715624732481E+04,
2455109.500000000, A.D. 2009-Oct-05 00:00:00.0000,  9.665729386889541E-01,  5.975590143415461E-01,  1.622503876976166E+02,  5.875965758261036E+01,  1.117278403954058E+02,  2.446465622854834E+06,  1.304007734804677E-02,  1.127168265599735E+02,  1.752506800245047E+02,  1.787650457158447E+01,  3.515545012882739E+01,  2.760719820836976E+04,
2455110.500000000, A.D. 2009-Oct-06 00:00:00.0000,  9.665733537243958E-01,  5.975521971746476E-01,  1.622503038643457E+02,  5.876055819071194E+01,  1.117286996822859E+02,  2.446465640992366E+06,  1.304005763526978E-02,  1.127294597083328E+02,  1.752517231102544E+02,  1.787652258763261E+01,  3.515549297809059E+01,  2.760723994242930E+04,
2455111.500000000, A.D. 2009-Oct-07 00:00:00.0000,  9.665737622662971E-01,  5.975454936748595E-01,  1.622502207950507E+02,  5.876145048161997E+01,  1.117295513439991E+02,  2.446465658995856E+06,  1.304003800110305E-02,  1.127420952455401E+02,  1.752527658107585E+02,  1.787654053188180E+01,  3.515553557008874E+01,  2.760728151018792E+04,
2455112.500000000, A.D. 2009-Oct-08 00:00:00.0000,  9.665741637090467E-01,  5.975389156300671E-01,  1.622501384091191E+02,  5.876233532362799E+01,  1.117303962860073E+02,  2.446465676876400E+06,  1.304001841408195E-02,  1.127547327550555E+02,  1.752538080476574E+02,  1.787655843308806E+01,  3.515557795054605E+01,  2.760732297825861E+04,
2455113.500000000, A.D. 2009-Oct-09 00:00:00.0000,  9.665745575974997E-01,  5.975324721880505E-01,  1.622500566074033E+02,  5.876321378369186E+01,  1.117312355961131E+02,  2.446465694648244E+06,  1.303999884111390E-02,  1.127673717650799E+02,  1.752548497494627E+02,  1.787657632149556E+01,  3.515562017080308E+01,  2.760736441670176E+04,
2455114.500000000, A.D. 2009-Oct-10 00:00:00.0000,  9.665749436560684E-01,  5.975261692857673E-01,  1.622499752767966E+02,  5.876408707818871E+01,  1.117320704935932E+02,  2.446465712328154E+06,  1.303997924913805E-02,  1.127800117710725E+02,  1.752558908555254E+02,  1.787659422731975E+01,  3.515566228535373E+01,  2.760740589551139E+04,
2455115.500000000, A.D. 2009-Oct-11 00:00:00.0000,  9.665753218113570E-01,  5.975200091762547E-01,  1.622498942977176E+02,  5.876495649249015E+01,  1.117329022482373E+02,  2.446465729934338E+06,  1.303995960736465E-02,  1.127926522692252E+02,  1.752569313203945E+02,  1.787661217870076E+01,  3.515570434822526E+01,  2.760744747987415E+04,
